IRIDIUM 155             
1 43573U 18061E   22355.06817907  .00000264  00000+0  87186-4 0  9998
2 43573  86.3986 229.1088 0001826  92.8603 267.2801 14.34214956230740
IRIDIUM 154             
1 43574U 18061F   22354.42123524  .00000174  00000+0  55137-4 0  9994
2 43574  86.3992 229.4509 0001993  76.9507 283.1911 14.34214353230694
IRIDIUM 163             
1 43575U 18061G   22354.40221137  .00000293  00000+0  97689-4 0  9992
2 43575  86.3988 229.4136 0002351  85.5768 274.5697 14.34215332230660
IRIDIUM 156             
1 43576U 18061H   22354.37684447  .00000298  00000+0  99469-4 0  9999
2 43576  86.3987 229.4298 0002196  91.8288 268.3159 14.34212157230658
IRIDIUM 164             
1 43577U 18061J   22354.35781230  .00000291  00000+0  96868-4 0  9999
2 43577  86.3990 229.4586 0002108  78.9648 281.1785 14.34217727230692
IRIDIUM 159             
1 43578U 18061K   22354.39586347  .00000272  00000+0  90051-4 0  9993
2 43578  86.3987 229.4063 0002019  79.9871 280.1552 14.34214236230669
IRIDIUM 180             
1 43922U 19002A   22354.46513150  .00000103  00000+0  29867-4 0  9992
2 43922  86.3986 166.3462 0002189  78.9871 281.1571 14.34217753206280
IRIDIUM 176             
1 43923U 19002B   22354.49267061  .00000395  00000+0  58778-4 0  9999
2 43923  86.6120 166.3752 0002254  90.2982 269.8493 14.72263804211708
IRIDIUM 168             
1 43924U 19002C   22354.94714941  .00000087  00000+0  24012-4 0  9996
2 43924  86.3989 166.1862 0001969  83.8995 276.2426 14.34218438206335
IRIDIUM 173             
1 43925U 19002D   22354.44610092  .00000092  00000+0  25732-4 0  9990
2 43925  86.3985 166.3364 0002052  84.6295 275.5135 14.34219480206244
IRIDIUM 169             
1 43926U 19002E   22354.64273355  .00000370  00000+0  11432-3 0  9990
2 43926  86.4250 197.8062 0003138 193.0390 167.0728 14.38610028206983
IRIDIUM 172             
1 43927U 19002F   22354.43974425  .00000097  00000+0  27696-4 0  9990
2 43927  86.3985 166.3432 0002104  81.4787 278.6648 14.34220808206251
IRIDIUM 175             
1 43928U 19002G   22354.75831928  .00000385  00000+0  57109-4 0  9998
2 43928  86.6123 166.1003 0002135  90.8075 269.3387 14.72257311211736
IRIDIUM 171             
1 43929U 19002H   22354.49050093  .00000100  00000+0  28671-4 0  9993
2 43929  86.3995 166.4865 0001962  83.6685 276.4734 14.34218998206256
IRIDIUM 170             
1 43930U 19002J   22354.77064856  .00000382  00000+0  56740-4 0  9998
2 43930  86.6122 166.2643 0002291  88.5907 271.5573 14.72257820211759
IRIDIUM 167             
1 43931U 19002K   22354.48413936  .00000112  00000+0  32900-4 0  9997
2 43931  86.3986 166.3357 0002110  79.8530 280.2904 14.34218450206251
